CORAL                   
1 67685U 98067YB  26043.78837473  .00041405  00000+0  72906-3 0  9994
2 67685  51.6301 195.3761 0012724 101.4519 258.7899 15.49940774   928
ISS OBJECT YC           
1 67686U 98067YC  26043.78795476  .00045458  00000+0  79685-3 0  9994
2 67686  51.6303 195.3741 0007793  76.6609 283.5248 15.50080405   924
LEOPARD                 
1 67687U 98067YD  26043.78859297  .00040265  00000+0  71199-3 0  9990
2 67687  51.6307 195.3783 0007898  78.3934 281.7941 15.49888363   849
ISS OBJECT YE           
1 67688U 98067YE  26043.78808797  .00045490  00000+0  79904-3 0  9997
2 67688  51.6307 195.3748 0007782  76.9093 283.2764 15.50022474   848
PRC TEST SPACECRAFT 4   
1 67689U 26024A   26043.84094984 -.00000026  00000+0  21458-4 0  9993
2 67689  49.9851 139.4165 0006164 264.4132  95.6107 14.91670291   875
CZ-2F R/B               
1 67690U 26024B   26043.68605831  .00010419  00000+0  20043-3 0  9990
2 67690  49.9859 139.9043 0177334 171.2576 189.1541 15.33223548   855
CZ-2F DEB               
1 67691U 26024C   26043.59409300  .00659003  10253-4  94605-3 0  9993
2 67691  49.9105 139.3122 0267569 177.1485 183.1087 15.62676486   849
CZ-2F DEB               
1 67692U 26024D   26043.47249242  .00008960  00000+0  18237-3 0  9999
2 67692  50.2497 141.4689 0244464 185.6574 174.1612 15.21014172   828
CZ-2F DEB               
1 67718U 26024E   26043.62799340  .00275911  00000+0  57017-2 0  9994
2 67718  50.3159 140.9010 0269175 181.5753 178.4382 15.14297138   823
CZ-2F DEB               
1 67719U 26024F   26043.69545620  .00206133  00000+0  53783-2 0  9998
2 67719  49.7904 141.4842 0340477 171.3879 189.3110 14.95505376   491
CZ-2F DEB               
1 67720U 26024G   26043.83919798  .00196459  00000+0  52585-2 0  9995
2 67720  49.8301 140.8943 0351002 168.6872 192.2223 14.92897706   832
