CCSDS_OMM_VERS = 2.0
CREATION_DATE  = 
ORIGINATOR     = 

OBJECT_NAME    = CORAL
OBJECT_ID      = 1998-067YB
CENTER_NAME    = EARTH
REF_FRAME      = TEME
TIME_SYSTEM    = UTC
MEAN_ELEMENT_THEORY = SGP/SGP4

EPOCH          = 2026-02-12T18:55:15.576672
MEAN_MOTION    = 15.49940774
ECCENTRICITY   = .0012724
INCLINATION    = 51.6301
RA_OF_ASC_NODE = 195.3761
ARG_OF_PERICENTER = 101.4519
MEAN_ANOMALY   = 258.7899

EPHEMERIS_TYPE = 0
CLASSIFICATION_TYPE = U
NORAD_CAT_ID   = 67685
ELEMENT_SET_NO = 999
REV_AT_EPOCH   = 92
BSTAR          = .72906E-3
MEAN_MOTION_DOT = .41405E-3
MEAN_MOTION_DDOT = 0

CCSDS_OMM_VERS = 2.0
CREATION_DATE  = 
ORIGINATOR     = 

OBJECT_NAME    = ISS OBJECT YC
OBJECT_ID      = 1998-067YC
CENTER_NAME    = EARTH
REF_FRAME      = TEME
TIME_SYSTEM    = UTC
MEAN_ELEMENT_THEORY = SGP/SGP4

EPOCH          = 2026-02-12T18:54:39.291264
MEAN_MOTION    = 15.50080405
ECCENTRICITY   = .0007793
INCLINATION    = 51.6303
RA_OF_ASC_NODE = 195.3741
ARG_OF_PERICENTER = 76.6609
MEAN_ANOMALY   = 283.5248

EPHEMERIS_TYPE = 0
CLASSIFICATION_TYPE = U
NORAD_CAT_ID   = 67686
ELEMENT_SET_NO = 999
REV_AT_EPOCH   = 92
BSTAR          = .79685E-3
MEAN_MOTION_DOT = .45458E-3
MEAN_MOTION_DDOT = 0

CCSDS_OMM_VERS = 2.0
CREATION_DATE  = 
ORIGINATOR     = 

OBJECT_NAME    = LEOPARD
OBJECT_ID      = 1998-067YD
CENTER_NAME    = EARTH
REF_FRAME      = TEME
TIME_SYSTEM    = UTC
MEAN_ELEMENT_THEORY = SGP/SGP4

EPOCH          = 2026-02-12T18:55:34.432608
MEAN_MOTION    = 15.49888363
ECCENTRICITY   = .0007898
INCLINATION    = 51.6307
RA_OF_ASC_NODE = 195.3783
ARG_OF_PERICENTER = 78.3934
MEAN_ANOMALY   = 281.7941

EPHEMERIS_TYPE = 0
CLASSIFICATION_TYPE = U
NORAD_CAT_ID   = 67687
ELEMENT_SET_NO = 999
REV_AT_EPOCH   = 84
BSTAR          = .71199E-3
MEAN_MOTION_DOT = .40265E-3
MEAN_MOTION_DDOT = 0

CCSDS_OMM_VERS = 2.0
CREATION_DATE  = 
ORIGINATOR     = 

OBJECT_NAME    = ISS OBJECT YE
OBJECT_ID      = 1998-067YE
CENTER_NAME    = EARTH
REF_FRAME      = TEME
TIME_SYSTEM    = UTC
MEAN_ELEMENT_THEORY = SGP/SGP4

EPOCH          = 2026-02-12T18:54:50.800608
MEAN_MOTION    = 15.50022474
ECCENTRICITY   = .0007782
INCLINATION    = 51.6307
RA_OF_ASC_NODE = 195.3748
ARG_OF_PERICENTER = 76.9093
MEAN_ANOMALY   = 283.2764

EPHEMERIS_TYPE = 0
CLASSIFICATION_TYPE = U
NORAD_CAT_ID   = 67688
ELEMENT_SET_NO = 999
REV_AT_EPOCH   = 84
BSTAR          = .79904E-3
MEAN_MOTION_DOT = .4549E-3
MEAN_MOTION_DDOT = 0

CCSDS_OMM_VERS = 2.0
CREATION_DATE  = 
ORIGINATOR     = 

OBJECT_NAME    = PRC TEST SPACECRAFT 4
OBJECT_ID      = 2026-024A
CENTER_NAME    = EARTH
REF_FRAME      = TEME
TIME_SYSTEM    = UTC
MEAN_ELEMENT_THEORY = SGP/SGP4

EPOCH          = 2026-02-12T20:10:58.066176
MEAN_MOTION    = 14.91670291
ECCENTRICITY   = .0006164
INCLINATION    = 49.9851
RA_OF_ASC_NODE = 139.4165
ARG_OF_PERICENTER = 264.4132
MEAN_ANOMALY   = 95.6107

EPHEMERIS_TYPE = 0
CLASSIFICATION_TYPE = U
NORAD_CAT_ID   = 67689
ELEMENT_SET_NO = 999
REV_AT_EPOCH   = 87
BSTAR          = .21458E-4
MEAN_MOTION_DOT = -.26E-6
MEAN_MOTION_DDOT = 0

CCSDS_OMM_VERS = 2.0
CREATION_DATE  = 
ORIGINATOR     = 

OBJECT_NAME    = CZ-2F R/B
OBJECT_ID      = 2026-024B
CENTER_NAME    = EARTH
REF_FRAME      = TEME
TIME_SYSTEM    = UTC
MEAN_ELEMENT_THEORY = SGP/SGP4

EPOCH          = 2026-02-12T16:27:55.437984
MEAN_MOTION    = 15.33223548
ECCENTRICITY   = .0177334
INCLINATION    = 49.9859
RA_OF_ASC_NODE = 139.9043
ARG_OF_PERICENTER = 171.2576
MEAN_ANOMALY   = 189.1541

EPHEMERIS_TYPE = 0
CLASSIFICATION_TYPE = U
NORAD_CAT_ID   = 67690
ELEMENT_SET_NO = 999
REV_AT_EPOCH   = 85
BSTAR          = .20043E-3
MEAN_MOTION_DOT = .10419E-3
MEAN_MOTION_DDOT = 0

CCSDS_OMM_VERS = 2.0
CREATION_DATE  = 
ORIGINATOR     = 

OBJECT_NAME    = CZ-2F DEB
OBJECT_ID      = 2026-024C
CENTER_NAME    = EARTH
REF_FRAME      = TEME
TIME_SYSTEM    = UTC
MEAN_ELEMENT_THEORY = SGP/SGP4

EPOCH          = 2026-02-12T14:15:29.635200
MEAN_MOTION    = 15.62676486
ECCENTRICITY   = .0267569
INCLINATION    = 49.9105
RA_OF_ASC_NODE = 139.3122
ARG_OF_PERICENTER = 177.1485
MEAN_ANOMALY   = 183.1087

EPHEMERIS_TYPE = 0
CLASSIFICATION_TYPE = U
NORAD_CAT_ID   = 67691
ELEMENT_SET_NO = 999
REV_AT_EPOCH   = 84
BSTAR          = .94605E-3
MEAN_MOTION_DOT = .659003E-2
MEAN_MOTION_DDOT = .10253E-4

CCSDS_OMM_VERS = 2.0
CREATION_DATE  = 
ORIGINATOR     = 

OBJECT_NAME    = CZ-2F DEB
OBJECT_ID      = 2026-024D
CENTER_NAME    = EARTH
REF_FRAME      = TEME
TIME_SYSTEM    = UTC
MEAN_ELEMENT_THEORY = SGP/SGP4

EPOCH          = 2026-02-12T11:20:23.345088
MEAN_MOTION    = 15.21014172
ECCENTRICITY   = .0244464
INCLINATION    = 50.2497
RA_OF_ASC_NODE = 141.4689
ARG_OF_PERICENTER = 185.6574
MEAN_ANOMALY   = 174.1612

EPHEMERIS_TYPE = 0
CLASSIFICATION_TYPE = U
NORAD_CAT_ID   = 67692
ELEMENT_SET_NO = 999
REV_AT_EPOCH   = 82
BSTAR          = .18237E-3
MEAN_MOTION_DOT = .896E-4
MEAN_MOTION_DDOT = 0

CCSDS_OMM_VERS = 2.0
CREATION_DATE  = 
ORIGINATOR     = 

OBJECT_NAME    = CZ-2F DEB
OBJECT_ID      = 2026-024E
CENTER_NAME    = EARTH
REF_FRAME      = TEME
TIME_SYSTEM    = UTC
MEAN_ELEMENT_THEORY = SGP/SGP4

EPOCH          = 2026-02-12T15:04:18.629760
MEAN_MOTION    = 15.14297138
ECCENTRICITY   = .0269175
INCLINATION    = 50.3159
RA_OF_ASC_NODE = 140.9010
ARG_OF_PERICENTER = 181.5753
MEAN_ANOMALY   = 178.4382

EPHEMERIS_TYPE = 0
CLASSIFICATION_TYPE = U
NORAD_CAT_ID   = 67718
ELEMENT_SET_NO = 999
REV_AT_EPOCH   = 82
BSTAR          = .57017E-2
MEAN_MOTION_DOT = .275911E-2
MEAN_MOTION_DDOT = 0

CCSDS_OMM_VERS = 2.0
CREATION_DATE  = 
ORIGINATOR     = 

OBJECT_NAME    = CZ-2F DEB
OBJECT_ID      = 2026-024F
CENTER_NAME    = EARTH
REF_FRAME      = TEME
TIME_SYSTEM    = UTC
MEAN_ELEMENT_THEORY = SGP/SGP4

EPOCH          = 2026-02-12T16:41:27.415680
MEAN_MOTION    = 14.95505376
ECCENTRICITY   = .0340477
INCLINATION    = 49.7904
RA_OF_ASC_NODE = 141.4842
ARG_OF_PERICENTER = 171.3879
MEAN_ANOMALY   = 189.3110

EPHEMERIS_TYPE = 0
CLASSIFICATION_TYPE = U
NORAD_CAT_ID   = 67719
ELEMENT_SET_NO = 999
REV_AT_EPOCH   = 49
BSTAR          = .53783E-2
MEAN_MOTION_DOT = .206133E-2
MEAN_MOTION_DDOT = 0

CCSDS_OMM_VERS = 2.0
CREATION_DATE  = 
ORIGINATOR     = 

OBJECT_NAME    = CZ-2F DEB
OBJECT_ID      = 2026-024G
CENTER_NAME    = EARTH
REF_FRAME      = TEME
TIME_SYSTEM    = UTC
MEAN_ELEMENT_THEORY = SGP/SGP4

EPOCH          = 2026-02-12T20:08:26.705472
MEAN_MOTION    = 14.92897706
ECCENTRICITY   = .0351002
INCLINATION    = 49.8301
RA_OF_ASC_NODE = 140.8943
ARG_OF_PERICENTER = 168.6872
MEAN_ANOMALY   = 192.2223

EPHEMERIS_TYPE = 0
CLASSIFICATION_TYPE = U
NORAD_CAT_ID   = 67720
ELEMENT_SET_NO = 999
REV_AT_EPOCH   = 83
BSTAR          = .52585E-2
MEAN_MOTION_DOT = .196459E-2
MEAN_MOTION_DDOT = 0

